start=new Date('2023-03-28T00:00:00.000Z').valueOf();
sats=[{"REV_AT_EPOCH":"10418","EPOCH":"2023-03-27T21:38:34.048608","PERIAPSIS":"546.511","CLASSIFICATION_TYPE":"U","MEAN_MOTION_DDOT":"0.0000000000000","MEAN_MOTION":"15.06383092","LAUNCH_DATE":"2021-05-09","FILE":"3872915","TIME_SYSTEM":"UTC","NORAD_CAT_ID":"48453","ECCENTRICITY":"0.00010890","ELEMENT_SET_NO":"999","COUNTRY_CODE":"US","MEAN_ANOMALY":"253.7977","ARG_OF_PERICENTER":"106.3132","MEAN_MOTION_DOT":"0.00012561","SITE":"AFETR","RA_OF_ASC_NODE":"339.9927","SEMIMAJOR_AXIS":"6925.400","CENTER_NAME":"EARTH","INCLINATION":"53.0545","RCS_SIZE":"LARGE","TLE_LINE1":"1 48453U 21040AB  23086.90178297  .00012561  00000-0  86106-3 0  9992","REF_FRAME":"TEME","OBJECT_ID":"2021-040AB","OBJECT_TYPE":"PAYLOAD","BSTAR":"0.00086106000000","PERIOD":"95.593","APOAPSIS":"548.020","OBJECT_NAME":"STARLINK-2620","GP_ID":"228992259","EPHEMERIS_TYPE":"0","MEAN_ELEMENT_THEORY":"SGP4","TLE_LINE2":"2 48453  53.0545 339.9927 0001089 106.3132 253.7977 15.06383092104185","DECAY_DATE":null},{"PERIOD":"95.591","APOAPSIS":"547.958","OBJECT_ID":"2021-040AC","OBJECT_TYPE":"PAYLOAD","BSTAR":"0.00226630000000","REF_FRAME":"TEME","TLE_LINE1":"1 48454U 21040AC  23086.89811612  .00033649  00000-0  22663-2 0  9993","DECAY_DATE":null,"TLE_LINE2":"2 48454  53.0541 340.0150 0001133  94.3630 265.7488 15.06413107105465","MEAN_ELEMENT_THEORY":"SGP4","EPHEMERIS_TYPE":"0","OBJECT_NAME":"STARLINK-2654","GP_ID":"228967504","TIME_SYSTEM":"UTC","NORAD_CAT_ID":"48454","FILE":"3872807","LAUNCH_DATE":"2021-05-09","MEAN_MOTION":"15.06413107","MEAN_MOTION_DDOT":"0.0000000000000","CLASSIFICATION_TYPE":"U","PERIAPSIS":"546.389","EPOCH":"2023-03-27T21:33:17.232768","REV_AT_EPOCH":"10546","INCLINATION":"53.0541","RCS_SIZE":"LARGE","CENTER_NAME":"EARTH","SEMIMAJOR_AXIS":"6925.308","RA_OF_ASC_NODE":"340.0150","SITE":"AFETR","MEAN_MOTION_DOT":"0.00033649","ARG_OF_PERICENTER":"94.3630","MEAN_ANOMALY":"265.7488","COUNTRY_CODE":"US","ELEMENT_SET_NO":"999","ECCENTRICITY":"0.00011330"},{"ARG_OF_PERICENTER":"89.6853","MEAN_MOTION_DOT":"0.00028556","ELEMENT_SET_NO":"999","ECCENTRICITY":"0.00009710","MEAN_ANOMALY":"270.4248","COUNTRY_CODE":"US","RCS_SIZE":"LARGE","INCLINATION":"53.0548","CENTER_NAME":"EARTH","RA_OF_ASC_NODE":"340.0285","SITE":"AFETR","SEMIMAJOR_AXIS":"6925.354","CLASSIFICATION_TYPE":"U","MEAN_MOTION_DDOT":"0.0000000000000","REV_AT_EPOCH":"10478","EPOCH":"2023-03-27T21:27:57.037824","PERIAPSIS":"546.546","FILE":"3872807","NORAD_CAT_ID":"48455","TIME_SYSTEM":"UTC","LAUNCH_DATE":"2021-05-09","MEAN_MOTION":"15.06398355","MEAN_ELEMENT_THEORY":"SGP4","EPHEMERIS_TYPE":"0","GP_ID":"228967510","OBJECT_NAME":"STARLINK-2497","TLE_LINE2":"2 48455  53.0548 340.0285 0000971  89.6853 270.4248 15.06398355104783","DECAY_DATE":null,"OBJECT_TYPE":"PAYLOAD","BSTAR":"0.00192830000000","OBJECT_ID":"2021-040AD","REF_FRAME":"TEME","TLE_LINE1":"1 48455U 21040AD  23086.89441016  .00028556  00000-0  19283-2 0  9996","APOAPSIS":"547.891","PERIOD":"95.592"},{"EPOCH":"2023-03-27T21:22:37.541856","PERIAPSIS":"546.632","REV_AT_EPOCH":"10417","MEAN_MOTION_DDOT":"0.0000000000000","CLASSIFICATION_TYPE":"U","MEAN_MOTION":"15.06392412","LAUNCH_DATE":"2021-05-09","NORAD_CAT_ID":"48456","TIME_SYSTEM":"UTC","FILE":"3872915","COUNTRY_CODE":"US","MEAN_ANOMALY":"231.1461","ECCENTRICITY":"0.00008730","ELEMENT_SET_NO":"999","MEAN_MOTION_DOT":"0.00014669","ARG_OF_PERICENTER":"128.9606","SEMIMAJOR_AXIS":"6925.372","SITE":"AFETR","RA_OF_ASC_NODE":"340.0445","CENTER_NAME":"EARTH","INCLINATION":"53.0543","RCS_SIZE":"LARGE","TLE_LINE1":"1 48456U 21040AE  23086.89071229  .00014669  00000-0  10018-2 0  9999","REF_FRAME":"TEME","OBJECT_ID":"2021-040AE","OBJECT_TYPE":"PAYLOAD","BSTAR":"0.00100180000000","APOAPSIS":"547.841","PERIOD":"95.593","OBJECT_NAME":"STARLINK-2508","GP_ID":"228991508","EPHEMERIS_TYPE":"0","MEAN_ELEMENT_THEORY":"SGP4","DECAY_DATE":null,"TLE_LINE2":"2 48456  53.0543 340.0445 0000873 128.9606 231.1461 15.06392412104173"},{"APOAPSIS":"548.245","PERIOD":"95.592","TLE_LINE1":"1 48458U 21040AG  23086.90316817  .00026322  00000-0  17794-2 0  9995","REF_FRAME":"TEME","BSTAR":"0.00177940000000","OBJECT_TYPE":"PAYLOAD","OBJECT_ID":"2021-040AG","DECAY_DATE":null,"TLE_LINE2":"2 48458  53.0538 345.0761 0001487 141.7709 218.3386 15.06399436104822","OBJECT_NAME":"STARLINK-2698","GP_ID":"228991760","EPHEMERIS_TYPE":"0","MEAN_ELEMENT_THEORY":"SGP4","MEAN_MOTION":"15.06399436","LAUNCH_DATE":"2021-05-09","TIME_SYSTEM":"UTC","NORAD_CAT_ID":"48458","FILE":"3872915","PERIAPSIS":"546.185","EPOCH":"2023-03-27T21:40:33.729888","REV_AT_EPOCH":"10482","MEAN_MOTION_DDOT":"0.0000000000000","CLASSIFICATION_TYPE":"U","SEMIMAJOR_AXIS":"6925.350","SITE":"AFETR","RA_OF_ASC_NODE":"345.0761","CENTER_NAME":"EARTH","RCS_SIZE":"LARGE","INCLINATION":"53.0538","COUNTRY_CODE":"US","MEAN_ANOMALY":"218.3386","ECCENTRICITY":"0.00014870","ELEMENT_SET_NO":"999","MEAN_MOTION_DOT":"0.00026322","ARG_OF_PERICENTER":"141.7709"},{"REV_AT_EPOCH":"10411","EPOCH":"2023-03-27T21:30:01.679328","PERIAPSIS":"546.261","CLASSIFICATION_TYPE":"U","MEAN_MOTION_DDOT":"0.0000000000000","LAUNCH_DATE":"2021-05-09","MEAN_MOTION":"15.06416740","FILE":"3872915","TIME_SYSTEM":"UTC","NORAD_CAT_ID":"48459","ELEMENT_SET_NO":"999","ECCENTRICITY":"0.00013020","MEAN_ANOMALY":"239.7280","COUNTRY_CODE":"US","ARG_OF_PERICENTER":"120.3837","MEAN_MOTION_DOT":"0.00020749","RA_OF_ASC_NODE":"345.3813","SITE":"AFETR","SEMIMAJOR_AXIS":"6925.297","INCLINATION":"53.0547","RCS_SIZE":"LARGE","CENTER_NAME":"EARTH","TLE_LINE1":"1 48459U 21040AH  23086.89585277  .00020749  00000-0  14071-2 0  9994","OBJECT_TYPE":"PAYLOAD","BSTAR":"0.00140710000000","OBJECT_ID":"2021-040AH","REF_FRAME":"TEME","APOAPSIS":"548.064","PERIOD":"95.591","EPHEMERIS_TYPE":"0","GP_ID":"228992510","OBJECT_NAME":"STARLINK-2579","MEAN_ELEMENT_THEORY":"SGP4","TLE_LINE2":"2 48459  53.0547 345.3813 0001302 120.3837 239.7280 15.06416740104115","DECAY_DATE":null},{"APOAPSIS":"547.964","PERIOD":"95.594","REF_FRAME":"TEME","BSTAR":"0.00154930000000","OBJECT_TYPE":"PAYLOAD","OBJECT_ID":"2021-040AJ","TLE_LINE1":"1 48460U 21040AJ  23086.91419426  .00022852  00000-0  15493-2 0  9997","TLE_LINE2":"2 48460  53.0539 344.9372 0000955  73.6452 286.4641 15.06370924104628","DECAY_DATE":null,"MEAN_ELEMENT_THEORY":"SGP4","OBJECT_NAME":"STARLINK-2582","GP_ID":"228990759","EPHEMERIS_TYPE":"0","FILE":"3872915","TIME_SYSTEM":"UTC","NORAD_CAT_ID":"48460","MEAN_MOTION":"15.06370924","LAUNCH_DATE":"2021-05-09","CLASSIFICATION_TYPE":"U","MEAN_MOTION_DDOT":"0.0000000000000","REV_AT_EPOCH":"10462","EPOCH":"2023-03-27T21:56:26.384064","PERIAPSIS":"546.641","CENTER_NAME":"EARTH","INCLINATION":"53.0539","RCS_SIZE":"LARGE","SITE":"AFETR","RA_OF_ASC_NODE":"344.9372","SEMIMAJOR_AXIS":"6925.438","ARG_OF_PERICENTER":"73.6452","MEAN_MOTION_DOT":"0.00022852","ECCENTRICITY":"0.00009550","ELEMENT_SET_NO":"999","COUNTRY_CODE":"US","MEAN_ANOMALY":"286.4641"},{"SITE":"AFETR","RA_OF_ASC_NODE":"344.8717","SEMIMAJOR_AXIS":"6925.307","CENTER_NAME":"EARTH","INCLINATION":"53.0546","RCS_SIZE":"LARGE","ECCENTRICITY":"0.00015010","ELEMENT_SET_NO":"999","COUNTRY_CODE":"US","MEAN_ANOMALY":"273.3023","ARG_OF_PERICENTER":"86.8138","MEAN_MOTION_DOT":"-0.00001875","MEAN_MOTION":"15.06413461","LAUNCH_DATE":"2021-05-09","FILE":"3872915","TIME_SYSTEM":"UTC","NORAD_CAT_ID":"48461","REV_AT_EPOCH":"10412","EPOCH":"2023-03-27T22:17:40.191360","PERIAPSIS":"546.133","CLASSIFICATION_TYPE":"U","MEAN_MOTION_DDOT":"0.0000000000000","TLE_LINE2":"2 48461  53.0546 344.8717 0001501  86.8138 273.3023 15.06413461104122","DECAY_DATE":null,"GP_ID":"228991009","OBJECT_NAME":"STARLINK-2693","EPHEMERIS_TYPE":"0","MEAN_ELEMENT_THEORY":"SGP4","APOAPSIS":"548.212","PERIOD":"95.591","TLE_LINE1":"1 48461U 21040AK  23086.92893740 -.00001875  00000-0 -10696-3 0  9999","REF_FRAME":"TEME","BSTAR":"-0.00010696000000","OBJECT_TYPE":"PAYLOAD","OBJECT_ID":"2021-040AK"},{"MEAN_MOTION":"15.06382596","LAUNCH_DATE":"2021-05-09","TIME_SYSTEM":"UTC","NORAD_CAT_ID":"48462","FILE":"3872915","EPOCH":"2023-03-27T21:53:10.611168","PERIAPSIS":"546.648","REV_AT_EPOCH":"10404","MEAN_MOTION_DDOT":"0.0000000000000","CLASSIFICATION_TYPE":"U","SEMIMAJOR_AXIS":"6925.402","SITE":"AFETR","RA_OF_ASC_NODE":"350.2311","CENTER_NAME":"EARTH","RCS_SIZE":"LARGE","INCLINATION":"53.0550","COUNTRY_CODE":"US","MEAN_ANOMALY":"338.3488","ECCENTRICITY":"0.00008940","ELEMENT_SET_NO":"999","MEAN_MOTION_DOT":"0.00016983","ARG_OF_PERICENTER":"21.7539","APOAPSIS":"547.886","PERIOD":"95.593","TLE_LINE1":"1 48462U 21040AL  23086.91192837  .00016983  00000-0  11568-2 0  9990","REF_FRAME":"TEME","OBJECT_TYPE":"PAYLOAD","BSTAR":"0.00115680000000","OBJECT_ID":"2021-040AL","DECAY_DATE":null,"TLE_LINE2":"2 48462  53.0550 350.2311 0000894  21.7539 338.3488 15.06382596104048","GP_ID":"228992260","OBJECT_NAME":"STARLINK-2683","EPHEMERIS_TYPE":"0","MEAN_ELEMENT_THEORY":"SGP4"},{"REF_FRAME":"TEME","OBJECT_TYPE":"PAYLOAD","BSTAR":"0.00033383000000","OBJECT_ID":"2021-040AM","TLE_LINE1":"1 48463U 21040AM  23086.91835041  .00004693  00000-0  33383-3 0  9997","APOAPSIS":"548.019","PERIOD":"95.593","MEAN_ELEMENT_THEORY":"SGP4","OBJECT_NAME":"STARLINK-2689","GP_ID":"228992011","EPHEMERIS_TYPE":"0","TLE_LINE2":"2 48463  53.0540 349.9193 0001127 119.3109 240.7993 15.06391737104053","DECAY_DATE":null,"CLASSIFICATION_TYPE":"U","MEAN_MOTION_DDOT":"0.0000000000000","REV_AT_EPOCH":"10405","PERIAPSIS":"546.458","EPOCH":"2023-03-27T22:02:25.475424","FILE":"3872915","TIME_SYSTEM":"UTC","NORAD_CAT_ID":"48463","MEAN_MOTION":"15.06391737","LAUNCH_DATE":"2021-05-09","ARG_OF_PERICENTER":"119.3109","MEAN_MOTION_DOT":"0.00004693","ECCENTRICITY":"0.00011270","ELEMENT_SET_NO":"999","COUNTRY_CODE":"US","MEAN_ANOMALY":"240.7993","CENTER_NAME":"EARTH","RCS_SIZE":"LARGE","INCLINATION":"53.0540","SITE":"AFETR","RA_OF_ASC_NODE":"349.9193","SEMIMAJOR_AXIS":"6925.374"}];
